EUTELSAT 8 WEST B       
1 40875U 15039B   25324.23065569 -.00000044  00000+0  00000+0 0  9991
2 40875   0.0671 351.0480 0004192 253.1743 250.3386  1.00272046 37562
EUTELSAT 9B             
1 41310U 16005A   25324.23403572  .00000083  00000+0  00000+0 0  9992
2 41310   0.0742  79.0165 0004293 180.3035 253.4381  1.00272460 36029
EUTELSAT 65 WEST A      
1 41382U 16014A   25324.21930229 -.00000255  00000+0  00000+0 0  9995
2 41382   0.0560  13.5745 0002479 233.2315 186.4618  1.00271930 35440
EUTELSAT 117 WEST B     
1 41589U 16038B   25324.20907556  .00000010  00000+0  00000+0 0  9994
2 41589   0.0080 147.8734 0000088  92.0212 137.8893  1.00271038 34562
EUTELSAT 172B           
1 42741U 17029B   25324.19494882  .00000016  00000+0  00000+0 0  9993
2 42741   0.0356 152.8102 0000239 298.3830 210.4677  1.00272511 31639
EUTELSAT 7C             
1 44334U 19034B   25324.09094487  .00000070  00000+0  00000+0 0  9997
2 44334   0.0739 182.5291 0002977  35.2492 241.3708  1.00271407  4738
EUTELSAT 5 WEST B       
1 44624U 19067A   25324.23126236 -.00000021  00000+0  00000+0 0  9996
2 44624   0.0717 327.3590 0003118 270.9857 259.4424  1.00271249 22344
EUTELSAT KONNECT        
1 45027U 20005B   25324.09094487  .00000070  00000+0  00000+0 0  9997
2 45027   0.0667  97.5205 0001463 207.7763 154.0094  1.00269089 22230
